ORBCOMM FM33            
1 25983U 99065D   26025.26322713  .00001825  00000+0  61043-3 0  9999
2 25983  45.0289  22.6369 0006084  99.0803 261.0735 14.40673352368086
ORBCOMM FM36            
1 25984U 99065E   26024.68001789  .00001764  00000+0  61403-3 0  9994
2 25984  45.0376 120.6894 0002810 297.2102  62.8460 14.38844057366318
ORBCOMM FM35            
1 25985U 99065F   26025.58806022  .00002007  00000+0  70744-3 0  9997
2 25985  45.0380 123.2376 0002126  91.1647 268.9445 14.37754119366784
ORBCOMM FM34            
1 25986U 99065G   26025.62594320  .00001705  00000+0  60908-3 0  9993
2 25986  45.0376 123.5439 0002244   3.5805 356.5059 14.37683311366901
ORBCOMM FM38            
1 33060U 08031A   26025.12146421  .00003938  00000+0  51137-3 0  9992
2 33060  48.4405 336.7197 0005102 280.1636  79.8705 14.82507771947669
ORBCOMM FM41            
1 33061U 08031B   26025.62596044  .00003545  00000+0  46806-3 0  9999
2 33061  48.4442 342.8857 0004315 267.7276 262.5472 14.82053803947213
ORBCOMM FM29            
1 33062U 08031C   26025.65876062  .00003773  00000+0  49448-3 0  9992
2 33062  48.4393 350.2282 0006014 266.5205 263.9696 14.82215316947134
ORBCOMM FM39            
1 33063U 08031D   26025.20982394  .00003018  00000+0  41619-3 0  9994
2 33063  48.4405  19.1828 0006815 235.7452 124.2819 14.80621077946685
